STARLINK-2022           
1 47643U 21012Z   23336.80934508  .00011291  00000+0  77504-3 0  9993
2 47643  53.0549 168.1194 0001637 104.3547 255.7623 15.06432454155480
